[{"OBJECT_NAME":"STARLINK-5685","OBJECT_ID":"2023-015AE","EPOCH":"2026-03-09T01:30:50.613120","MEAN_MOTION":15.02535586,"ECCENTRICITY":0.00012798,"INCLINATION":43.0051,"RA_OF_ASC_NODE":316.9093,"ARG_OF_PERICENTER":266.03,"MEAN_ANOMALY":94.0396,"EPHEMERIS_TYPE":0,"CLASSIFICATION_TYPE":"U","NORAD_CAT_ID":55477,"ELEMENT_SET_NO":999,"REV_AT_EPOCH":17080,"BSTAR":1.9378457e-5,"MEAN_MOTION_DOT":5.8e-7,"MEAN_MOTION_DDOT":0},{"OBJECT_NAME":"FENGYUN 1C DEB","OBJECT_ID":"1999-025CFH","EPOCH":"2026-03-07T23:38:47.437728","MEAN_MOTION":14.44985594,"ECCENTRICITY":0.03068092,"INCLINATION":98.0605,"RA_OF_ASC_NODE":76.6957,"ARG_OF_PERICENTER":189.4978,"MEAN_ANOMALY":170.0331,"EPHEMERIS_TYPE":0,"CLASSIFICATION_TYPE":"U","NORAD_CAT_ID":31758,"ELEMENT_SET_NO":999,"REV_AT_EPOCH":95430,"BSTAR":0.0018761349,"MEAN_MOTION_DOT":0.00011691,"MEAN_MOTION_DDOT":0}]
